,ลำดับ,จังหวัด,สถานที่,CleanedAddress,Location,locType,วันที่,fromDate,toDate,ช่วงเวลา,สิ่งที่ต้องปฏิบัติ,ประกาศโดย,lat,lon
0,1,กรุงเทพมหานคร,สนามมวยลุมพินี,สนามมวยลุมพินี,สนามมวยลุมพินี กรุงเทพมหานคร,loc,6-8 มีนาคม 2563,6 มีนาคม 2563,8 มีนาคม 2563,-,สังเกตอาการตนเอง 14 วนั  หากมีอาการใหไ้ ปรับ การตรวจรักษาทสี  ถานบริการสาธารณสุขใกล้บ้าน,กระทรวงสาธารณสุข,13.8669948,100.6088098
1,2,กรุงเทพมหานคร,สนามมวยราชดำเนิน,สนามมวยราชดำเนิน,สนามมวยราชดำเนิน กรุงเทพมหานคร,loc,6-8 มีนาคม 2563,6 มีนาคม 2563,8 มีนาคม 2563,-,,ส านักสารนิเทศ กระทรวงสาธารณสุข 18 มีนาคม 2563,13.7611978,100.5088608
2,3,กรุงเทพมหานคร,สถานบันเทิง ร้านอาหารยามค่ำคืน,สถานบันเทิง ร้านอาหารยามค่ำคืน,สถานบันเทิง ร้านอาหารยามค่ำคืน กรุงเทพมหานคร,loc,9-10 มีนาคม 2563,9 มีนาคม 2563,10 มีนาคม 2563,-,,,13.7007804,100.5150487
3,4,กรุงเทพมหานคร,รถเมล์ สาย 96 (มีนบุรี - หมอชิต 2),รถเมล์ สาย 96 (มีนบุรี - หมอชิต 2),กรุงเทพมหานคร,localBus,13 มีนาคม 2563,13 มีนาคม 2563,13 มีนาคม 2563,,หากมีอาการป่วยให้รีบไปพบแพทย์ ณ สถานพยาบาลใกล้บ้านทนั  ที,"ส านกั งานสาธารณสุข หนองบวั ล าภู
22 มีนาคม 2563",13.7563309,100.5017651
4,5,กรุงเทพมหานคร,งานบวช วัดราชาธิวาสราชวรวิหาร เขตดุสิต,วัดราชาธิวาสราชวรวิหาร เขตดุสิต,วัดราชาธิวาสราชวรวิหาร เขตดุสิต กรุงเทพมหานคร,loc,14 มีนาคม 2563,14 มีนาคม 2563,14 มีนาคม 2563,-,"ให้ไปทคี  ลินิกโรคติดต่อทางเดินหายใจ และแจง้
ขอ้ มูลต่อเจา้ หน้าทสี  าธารณสุข ณ สถานพยาบาล ใกล้บ้าน และสังเกตอาการจนครบ 14 วัน","ส านักงานสาธารณสุข จงั หวดั นนทบุรี
23 มีนาคม 2563",13.7754334,100.5033186
5,6,อุบลราชธานี,ตะวันแดง,ตะวันแดง,ตะวันแดง อุบลราชธานี,loc,9 มีนาคม 2563,9 มีนาคม 2563,9 มีนาคม 2563,-,กกั กนั  ตัวเอง 14 วนั  นับตั้งแต่ไปสถานทดี  ังกล่าว หากมีอาการให้แจ้งกลุ่มงานควบคุมโรคติดต่อ สสจ. อุบลราชธานี,"ผู้ว่าราชการจงั หวดั อุบลราชธานี
19 มีนาคม 2563",15.259679,104.8327992
6,7,อุบลราชธานี,มิกซ์ผับ,มิกซ์ผับ,มิกซ์ผับ อุบลราชธานี,loc,9 มีนาคม 2563,9 มีนาคม 2563,9 มีนาคม 2563,-,,,15.2336386,104.867782
7,8,อุบลราชธานี,ริคโก้,Ricco café,Ricco café อุบลราชธานี,loc,12 มีนาคม 2563,12 มีนาคม 2563,12 มีนาคม 2563,.,,,15.2363095,104.8531585
8,9,อุบลราชธานี,ยูบาร์,ยูบาร์,ยูบาร์ อุบลราชธานี,loc,13-14 มีนาคม 2563,13 มีนาคม 2563,14 มีนาคม 2563,-,,,15.2326101,104.8645547
9,10,อุบลราชธานี,ร้านอาหารชมจันทร์,ร้านอาหารชมจันทร์,ร้านอาหารชมจันทร์ อุบลราชธานี,loc,14 มีนาคม 2563,14 มีนาคม 2563,14 มีนาคม 2563,-,,,15.2226902,104.8744895
10,11,อุบลราชธานี,ผู้โดยสารเครื่องบินนกแอร์ DD9325 อุบล - ดอนเมือง,ผู้โดยสารเครื่องบินนกแอร์ DD9325 อุบล - ดอนเมือง,อุบลราชธานี,domesticPlane,"15 มีนาคม 2563
(เริ มป่วย 16-29 มี.ค. 63)","15 มีนาคม 2563
","15 มีนาคม 2563
",17.33 น.,"1. หากมีอาการไข้ ไอ เจ็บคอ และมีอาการทาง ระบบทางเดินหายใจใหเ้ ขา้ รับการตรวจรักษาและ แจ้งให้เจ้าหน้าทสี  าธารณสุขในพนื้  ทที   ราบ ทันที
2. หากไม่มีอาการดังกล่าว ควรแยกตัวสังเกตอาการ และหลีกเลี ยงการใกล้ชิดผู้อื นในทพ ี   านกั  หรือพัก อาศัยจนครบ 14 วัน นบั  จากวันเดินทางมาถึง",ศูนย์ปฏิบตั ิการตอบโต้ ภาวะฉุกเฉิน โรคติด เช้ือไวรัสโคโรนา 2019 จังหวัดอุบลราชธานี 22 มีนาคม 2563,15.2286861,104.8564217
11,12,อุบลราชธานี,ผู้โดยสารรถทัวร์นครชัยแอร์ กรุงเทพฯ - อุบล,ผู้โดยสารรถทัวร์นครชัยแอร์ กรุงเทพฯ - อุบล,อุบลราชธานี,tourBus,"16 มีนาคม 2563
(เริ มป่วย 17-30 มี.ค. 63)","16 มีนาคม 2563
","16 มีนาคม 2563
",22.00 น.,,,15.2286861,104.8564217
12,13,อุบลราชธานี,ผู้โดยสารแท็กซี่ บ.บริการดี อุบล จำกัด ทข.486,ผู้โดยสารแท็กซี่ บ.บริการดี อุบล จำกัด ทข.486,อุบลราชธานี,taxi,"19 มีนาคม 2563
(เริ มป่วย 20 มี.ค. 63)","19 มีนาคม 2563
","19 มีนาคม 2563
",-,,,15.2286861,104.8564217
13,14,ขอนแก่น,โรงเหล้ามิตรภาพ,โรงเหล้ามิตรภาพ,โรงเหล้ามิตรภาพ ขอนแก่น,loc,7 มีนาคม 2563,7 มีนาคม 2563,7 มีนาคม 2563,00.00 - 03.30 น.,รายงานตัวแสดงตนกบั  เจา้ หน้าทสี  าธารณสุข ณ สถานพยาบาลใกล้บ้านทนั  ที ภายในวันที  30 มีนาคม 2563,ส านกั งานสาธารณสุข จงั หวดั ขอนแก่น,16.4245904,102.822268
14,15,ขอนแก่น,ตะวันแดง ขอนแก่น,ตะวันแดง ,ตะวันแดง  ขอนแก่น,loc,8 มีนาคม 2563,8 มีนาคม 2563,8 มีนาคม 2563,00.00 - 02.30 น.,,,16.4323603,102.8419413
15,16,ขอนแก่น,ร้านซอดแจ้ง  หมูกระทะ ชิวชิว,ร้านซอดแจ้ง  หมูกระทะ ชิวชิว,ร้านซอดแจ้ง  หมูกระทะ ชิวชิว ขอนแก่น,loc,12 มีนาคม 2563,12 มีนาคม 2563,12 มีนาคม 2563,21.00 น.,,,16.4261116,102.8278557
16,17,ขอนแก่น,ตะวันแดงขอนแก่น,ตะวันแดง ,ตะวันแดง  ขอนแก่น,loc,15 มีนาคม 2563,15 มีนาคม 2563,15 มีนาคม 2563,00.59 น.,,,16.4323603,102.8419413
17,18,ขอนแก่น,ตลาดหนองไผ่ล้อม,ตลาดหนองไผ่ล้อม,ตลาดหนองไผ่ล้อม ขอนแก่น,loc,16 มีนาคม 2563,16 มีนาคม 2563,16 มีนาคม 2563,17.00 น.,,,16.4266282,102.8317156
18,19,ขอนแก่น,ตะวันแดงขอนแก่น,ตะวันแดง ,ตะวันแดง  ขอนแก่น,loc,16 มีนาคม 2563,16 มีนาคม 2563,16 มีนาคม 2563,02.00 น.,,,16.4323603,102.8419413
19,20,ขอนแก่น,ผู้โดยสารสายการบินไทยสมายล์ เที่ยวบินที่ WE042 เดินทางจาก สุวรรณภูมิ - ขอนแก่น,ผู้โดยสารสายการบินไทยสมายล์ เที่ยวบินที่ WE042 เดินทางจาก สุวรรณภูมิ - ขอนแก่น,ขอนแก่น,domesticPlane,20 มีนาคม 2563,20 มีนาคม 2563,20 มีนาคม 2563,"11.00 น.
12.00 น.","ติดต่อสถานบริการสาธารณสุขใกล้บา้ นด่วน
เน ืองจากท่านเป็นผู้ทมี  ีความเสี ยงต่อการติดเชื้อ COVID-19 เพอื  รับการตรวจรักษาและรับค าแนะน า การสังเกตอาการตนเอง","ส านักงานสาธารณสุข จงั หวดั ขอนแก่น
27 มีนาคม 2563",16.4419355,102.8359921
20,21,นนทบุรี,สนามมวย อตก. 3,สนามมวย อตก. 3,สนามมวย อตก. 3 นนทบุรี,loc,8 มีนาคม 2563,8 มีนาคม 2563,8 มีนาคม 2563,18.00 – 20.00 น.,ใหไ้ ปพบแพทย์และแจง้ ขอ้ มูลต่อเจา้ หน้าท ี ณ สถานพยาบาลใกล้บ้าน,ส านกั งานสาธารณสุข จังหวัดนครราชสีมา,13.8606684,100.4928441
21,22,นนทบุรี,การสอบนักศึกษา มหาวิทยาลัยราช มงคลสุวรรณภูมิ เขตใต้ ปี 4,มหาวิทยาลัยราชมงคลสุวรรณภูมิ ,มหาวิทยาลัยราชมงคลสุวรรณภูมิ  นนทบุรี,loc,13 มีนาคม 2563,13 มีนาคม 2563,13 มีนาคม 2563,09.00 – 12.00 น.,"ใหไ้ ปทคี  ลินิกโรคติดต่อทางเดินหายใจ และแจง้
ขอ้ มูลต่อเจ้าหน้าทสี  าธารณสุข ณ สถานพยาบาล ใกล้บา้ น และสังเกตอาการจนครบ 14 วนั ติดต่อกลุ่มงานควบคุมโรค สสจ.นนทบุรี
โทร. 02-950-3071 ต่อ 113, 124","ส านักงานสาธารณสุข จังหวัดนนทบุรี
23 มีนาคม 2563",13.8681928,100.4829428
22,23,นนทบุรี,รถ ปอ. สาย 70 จากประชานิเวศน์ - สนามมวย จากสนามมวย - อู่ประชานิเวศน์,รถ ปอ. สาย 70 จากประชานิเวศน์ - สนามมวย จากสนามมวย - อู่ประชานิเวศน์,นนทบุรี,localBus,8-14 มีนาคม 2563,8 มีนาคม 2563,14 มีนาคม 2563,"17:00 - 18:00 น.
22:00 - 23:00 น.",,"ส านกั งานสาธารณสุข จังหวดั นนทบุรี
23 และ 25 มีนาคม
2563",13.8621125,100.5143528
23,24,นนทบุรี,"รถตู้ (คันที่ 53)
วินฝ่ังเดอะมอล์ งำมวงศ์วำน
วันที่ 13  มีนาคม 2563 เวลา 11:00 น. และ 18.00 น.
วันที่ี 16  มีนาคม 2563 เวลา 11:00 น.
วันที 17  มีนาคม 2563 เวลา 11:00 น. และ 15:00 น.
วินฝั่ง ฟิวเจอร์พำร์ค รังสิต
วันที่ 11  มีนาคม 2563 เวลา 14:30 น. และ 21:20 น.
วันที่ 13  มีนาคม 2563 เวลา 19:40 น.
วันที 14  มีนาคม 2563 เวลา 19:50 น.
วันที่ี 16  มีนาคม 2563 เวลา 19:40 น.
วันที่ 17  มีนาคม 2563 เวลา 16:45 น.
วันที่ 18  มีนาคม 2563 เวลา 11:45 น. และ 21:45 น.","เดอะมอลล์ งามวงศ์วำน
",นนทบุรี,van,8-20 มีนาคม 2563,8 มีนาคม 2563,20 มีนาคม 2563,-,"ให้ไปทค ี ลินิกโรคติดต่อทางเดินหายใจ และแจ้ง ขอ้ มูลต่อเจา้ หนา้ ทสี  าธารณสุข ณ สถานพยาบาล ใกล้บา้ น และสังเกตอาการจนครบ 14 วนั ติดต่อกลุ่มงานควบคุมโรค สสจ.นนทบุรี
โทร. 02-950-3071 ต่อ 113, 124",ส านักงานสาธารณสุข จังหวัดนนทบุรี,13.8621125,100.5143528
24,25,สงขลา,"มินิบัสหมายเลข 4
สนามบิน - ตัวเมืองหาดใหญ่","มินิบัสหมายเลข 4
สนามบิน - ตัวเมืองหาดใหญ่",สงขลา,localBus,13 มีนาคม 2563,13 มีนาคม 2563,13 มีนาคม 2563,10.00 น.,"รายงานตัวทแ ี ผนกตรวจโรคติดต่อทางเดินหายใจ ณ โรงพยาบาลของรัฐใกล้บ้านทันที เพอ ื รับการตรวจ รักษาและสังเกตอาการตนเองจนถึงวันที  27 มีนาคม
2563","ส านักประชาสัมพนั  ธ์ จงั หวดั สงขลา
20 มีนาคม 2563",7.1756004,100.614347
25,26,สงขลา,สนามกีฬาจิระนคร อ.หาดใหญ่,สนามกีฬาจิระนคร อ.หาดใหญ่,สนามกีฬาจิระนคร อ.หาดใหญ่ สงขลา,loc,14-15 มีนาคม 2563,14 มีนาคม 2563,15 มีนาคม 2563,16.00 – 19.00 น.,ใหแ้ ยกตัวเพอ ื สังเกตอาการตนเองจนถึงวันที  29 มีนาคม 2563 หากมีอาการไขร้ ่วมกับอาการหวัด ให้ รีบพบแพทย์เพอื  ตรวจรักษาทนั  ที,"ส านกั ประชาสัมพันธ์ จงั หวัดสงขลา
20 มีนาคม 2563",7.020057,100.4719019
26,27,นครราชสีมา,สนามไก่ชน อ.โนนไทย,สนามไก่ชน อ.โนนไทย,สนามไก่ชน อ.โนนไทย นครราชสีมา,loc,7 มีนาคม 2563,7 มีนาคม 2563,7 มีนาคม 2563,11.00 – 20.00 น.,ขอให้ไปพบแพทย์แจ้งขอ้ มูลต่อเจา้ หน้าที  ณ สถานพยาบาลใกล้บา้ น (เป็นผู้มีความเสี ยงติดเชื้อ),ส านักงานสาธารณสุข จงั หวดั นครราชสีมา,15.1840212,102.0771882
27,28,นครราชสีมา,มวยตู้ ต.กุดจิก อ.สูงเนิน,ต.กุดจิก อ.สูงเนิน,ต.กุดจิก อ.สูงเนิน นครราชสีมา,loc,8 มีนาคม 2563,8 มีนาคม 2563,8 มีนาคม 2563,12.00 – 20.00 น.,,,14.9119667,101.9056749
28,29,นครราชสีมา,ธ.กรุงไทย สาขาสามแยกปักฯ,ธ.กรุงไทย สาขาสามแยกปักธงชัย,ธ.กรุงไทย สาขาสามแยกปักธงชัย นครราชสีมา,loc,10-12 มีนาคม 2563,10 มีนาคม 2563,12 มีนาคม 2563,07.00 - 17.00 น.,,ส านกั งานสาธารณสุข จงั หวัดนครราชสีมา 24 มีนาคม 2563,14.958375,102.048083
29,30,นครราชสีมา,บขส.ใหม่ รถประจ าทาง บ.เฉลิมพล ขนส่งปลายทาง อ.ประทาย,บขส.ใหม่ รถประจ าทาง บ.เฉลิมพล ขนส่งปลายทาง อ.ประทาย,นครราชสีมา,tourBus,13 มีนาคม 2563,13 มีนาคม 2563,13 มีนาคม 2563,07.00 - 17.00 น.,,,14.9798997,102.0977693
30,31,นครราชสีมา,บ.หนองหัวช้าง ต.โคกสำราญ อ.บ้านแฮด,บ.หนองหัวช้าง ต.โคกสำราญ อ.บ้านแฮด,บ.หนองหัวช้าง ต.โคกสำราญ อ.บ้านแฮด นครราชสีมา,loc,14 มีนาคม 2563,14 มีนาคม 2563,14 มีนาคม 2563,11.00 - 20.00 น.,,,16.148545,102.708478
31,32,นครราชสีมา,บขส.ใหม่ รถประจำทาง บ.เฉลิมพล ขนส่งปลายทาง อ.ประทาย,บขส.ใหม่ รถประจำทาง บ.เฉลิมพล ขนส่งปลายทาง อ.ประทาย,นครราชสีมา,tourBus,15 มีนาคม 2563,15 มีนาคม 2563,15 มีนาคม 2563,18.30 - 20.00 น.,,,14.9798997,102.0977693
32,33,นครราชสีมา,ธ.กรุงไทย สาขาสามแยกปักธงชัย,ธ.กรุงไทย สาขาสามแยกปักธงชัย,ธ.กรุงไทย สาขาสามแยกปักธงชัย นครราชสีมา,loc,16-19 มีนาคม 2563,16 มีนาคม 2563,19 มีนาคม 2563,07.00 - 17.00 น.,,,14.958375,102.048083
33,34,สุรินทร์,ตลาดช่องจอม อ.กาบเชิง,ตลาดช่องจอม อ.กาบเชิง,ตลาดช่องจอม อ.กาบเชิง สุรินทร์,loc,15 มีนาคม 2563,15 มีนาคม 2563,15 มีนาคม 2563,13.00 – 14.00 น.,"ไปรายงานตัวและแจง้ อสม. ผู้ใหญ่บา้ น หรือ
เจ้าหนา้ ทสี  าธารณสุขในพน้ื  ทท ี  ันที เพอ ื รับค าแนะน า ข้อมูลด้านสุขภาพ การสังเกตอาการ และการตรวจ รักษา ภายในวนั  ที  30 มีนาคม 2563","ส านกั งานสาธารณสุข จงั หวัดสุรินทร์
ส านักงานสาธารณสุข จงั หวดั บุรีรัมย์
22 มีนาคม 2563",14.4534229,103.6898444
34,35,สุรินทร์,งานศพ ม.3 ต.ลำดวน อ.ลำดวน,อ.ลำดวน,อ.ลำดวน สุรินทร์,loc,16 มีนาคม 2563,16 มีนาคม 2563,16 มีนาคม 2563,19.00 – 23.00 น.,,,14.736947,103.7057493
35,36,สุรินทร์,ผู้โดยสารรถทัวร์นครชัยแอร์ First Class 30 ที่นั่ง ระยอง - สุรินทร์ รหัสเที่ยว 8224 (ออกจากพัทยา),ผู้โดยสารรถทัวร์นครชัยแอร์ First Class 30 ที่นั่ง ระยอง - สุรินทร์ รหัสเที่ยว 8224 (ออกจากพัทยา),สุรินทร์,tourBus,"22 มีนาคม 2563
23 มีนาคม 2563",22 มีนาคม 2563,23 มีนาคม 2563,"21.10 น.
04.30 น.","ขอใหร้ ายงานตัวกับเจ้าหน้าทส ี าธารณสุข ณ สถานพยาบาลใกล้บ้านทันที เพอ ื รับการตรวจและ ค าแนะน าในการสังเกตอาการตนเอง โทร.
09-2599-5108","ส านักงานสาธารณสุข จงั หวดั สุรินทร์
26 มีนาคม 2563",14.882905,103.4937107
36,37,ระยอง,"รถตู้ BH หมายเลข 9
ระยอง - หมอชิต (ผู้โดยสาร)","รถตู้ BH หมายเลข 9
ระยอง - หมอชิต (ผู้โดยสาร)",ระยอง,van,"17 มีนาคม 2563
18 มีนาคม 2563
19 มีนาคม 2563","17 มีนาคม 2563
",19 มีนาคม 2563,"12.00 น.
14.00 น.
10.30 น.",ติดต่อ ส านกั งานสาธารณสุขจังหวัดระยอง เบอร์โทรศัพท์ 081- 8657090 ด่วน,"ส านกั งานสาธารณสุข จังหวัดระยอง
24 มีนาคม 2563",12.707434,101.1473517
37,38,ระยอง,รถตู้ ทะเบียน 10-107-99 ระยอง - โรงเกลือ,รถตู้ ทะเบียน 10-107-99 ระยอง - โรงเกลือ,ระยอง,van,11-13 มีนาคม 2563,11 มีนาคม 2563,13 มีนาคม 2563,09.00 น.,,,12.707434,101.1473517
38,39,แพร่,สนามชนไก่ทุ่ง กวาว อ.เมืองแพร่,ทุ่งกวาว อ.เมืองแพร่,ทุ่งกวาว อ.เมืองแพร่ แพร่,loc,9-12 มีนาคม 2563,9 มีนาคม 2563,12 มีนาคม 2563,-,ขอให้รายงานตัวกบั  ก านนั  ผู้ใหญ่บา้ น และ อสม. โดยด่วน,"ส านกั ประชาสัมพันธ์ จ.แพร่
24 มีนาคม 2563",18.1538555,100.1605995
39,40,แพร่,สนามชนไก่ปากกาง อ.ลอง,ปากกาง อ.ลอง,ปากกาง อ.ลอง แพร่,loc,9-12 มีนาคม 2563,9 มีนาคม 2563,12 มีนาคม 2563,-,,,18.0295662,99.8069141
40,41,แพร่,สนามชนไก่ ต.เวียงทอง อ.สูงเม่น,เวียงทอง อ.สูงเม่น,เวียงทอง อ.สูงเม่น แพร่,loc,9-12 มีนาคม 2563,9 มีนาคม 2563,12 มีนาคม 2563,-,,,18.10948,100.0751331
41,42,เชียงราย,"รถสมบัติทัวร์ กรุงเทพ - เชียงแสน ปรับอากาศ VIP 24 ที่นั่ง เลข 3 - 1
ทะเบียน 16-3473 กทม.","รถสมบัติทัวร์ กรุงเทพ - เชียงแสน ปรับอากาศ VIP 24 ที่นั่ง เลข 3 - 1
ทะเบียน 16-3473 กทม.",เชียงราย,tourBus,21-22 มีนาคม 2563,21 มีนาคม 2563,22 มีนาคม 2563,19.15 - 08.00 น.,ให้ไปรายงานตัวต่อเจ้าหน้าทสี  าธารณสุขในพน้ื  ท ี ภายในวันท ี 24 มีนาคม 2563 โทร. 053-910385,"ส านักงานสาธารณสุข จงั หวดั เชียงราย
24 มีนาคม 2563",19.9071656,99.830955
42,43,ประจวบคีรีขันธ์,รถตู้ทะเบียน 15-6842 กท. เลขข้าง รถ 978-22 ท่ารถ JKP ชานชาลาที 1 สายใต้ใหม่ - ประจวบคีรีขันธ์,รถตู้ทะเบียน 15-6842 กท. เลขข้าง รถ 978-22 ท่ารถ JKP ชานชาลาที 1 สายใต้ใหม่ - ประจวบคีรีขันธ์,ประจวบคีรีขันธ์,van,16 มีนาคม 2563,16 มีนาคม 2563,16 มีนาคม 2563,14.45 น.,ผู้ทเี  ดินทางมากบั  รถโดยสารประจ าทางดังกล่าว ให้ มาตรวจร่างกายทโ ี รงพยาบาลในพนื้  ทท ี  ที   ่านอาศัยอยู่ โดยด่วน,คณะกรรมการ โรคติดต่อจังหวดั ประจวบคีรีขันธ์ 24 มีนาคม 2563,11.812367,99.79732709999999
43,44,ประจวบคีรีขันธ์,รถมินิบัส ทะเบียน 16-2418 กรุงเทพฯ เลขข้างรถ 985-20 กรุงเทพ - ปราณบุรี ท่ารถจักรพันธ์ทัวร์ ชานชาลาที  7 ออกจากหมอชิต,รถมินิบัส ทะเบียน 16-2418 กรุงเทพฯ เลขข้างรถ 985-20 กรุงเทพ - ปราณบุรี ท่ารถจักรพันธ์ทัวร์ ชานชาลาที  7 ออกจากหมอชิต,ประจวบคีรีขันธ์,tourBus,12 มีนาคม 2563,12 มีนาคม 2563,12 มีนาคม 2563,14.00 น.,,,11.812367,99.79732709999999
44,45,บุรีรัมย์,ผู้โดยสารเที่ยวบิน TG 917 ลอนดอน - กรุงเทพ (สุวรรณภูมิ),ผู้โดยสารเที่ยวบิน TG 917 ลอนดอน - กรุงเทพ (สุวรรณภูมิ),บุรีรัมย์,interPlane,"16 มีนาคม 2563
17 มีนาคม 2563","16 มีนาคม 2563
",17 มีนาคม 2563,21.30 - 16.00 น.,รายงานตัว เพอื  แจ้งขอ้ มูลต่อเจา้ หนา้ ทที   ก ี ลุ่มงาน ควบคุมโรค ส านกั งานสาธารณสุขจังหวดั บุรีรัมย์ โทร.044-617241,"ส านกั งานสาธารณสุข บุรีรัมย์
25 มีนาคม 2563",14.9930017,103.1029191
45,46,พิษณุโลก,ร้านครัวน่านน้ำ,ร้านครัวน่านน้ำ,ร้านครัวน่านน้ำ พิษณุโลก,loc,16 มีนาคม 2563,16 มีนาคม 2563,16 มีนาคม 2563,18.00 น.,"ติดต่อ ส านกั งานสาธารณสุขจงั หวัดพิษณุโลก เบอร์โทรศัพท์ 088-2752237 ด่วน
Inbox : ส านกั งานสาธารณสุขจงั หวดั พิษณุโลก","ส านักงานสาธารณสุข จงั หวัดพิษณุโลก
25 มีนาคม 2563
27 มีนาคม 2563",16.8117859,100.2568585
46,47,พิษณุโลก,ผู้โดยสารเครื่องบิน LION AIR พิษณุโลก - กรุงเทพ,ผู้โดยสารเครื่องบิน LION AIR พิษณุโลก - กรุงเทพ,พิษณุโลก,domesticPlane,6 มีนาคม 2563,6 มีนาคม 2563,6 มีนาคม 2563,16.05 น.,,,16.8211238,100.2658516
47,48,พิษณุโลก,ผู้โดยสารเครื่องบิน NOK AIR กรุงเทพ - พิษณุโลก,ผู้โดยสารเครื่องบิน NOK AIR กรุงเทพ - พิษณุโลก,พิษณุโลก,domesticPlane,8 มีนาคม 2563,8 มีนาคม 2563,8 มีนาคม 2563,13.40 น.,,,16.8211238,100.2658516
48,49,พิษณุโลก,ร้านอาหารตามสั่งนั่งชิว,ร้านอาหารตามสั่งนั่งชิว,ร้านอาหารตามสั่งนั่งชิว พิษณุโลก,loc,15 มีนาคม 2563,15 มีนาคม 2563,15 มีนาคม 2563,19.20 - 20.00 น.,,,16.8103853,100.2570425
49,50,พิษณุโลก,ร้านข้าวสิงโต ม.นเรศวร ประตู 5,ร้านข้าวสิงโต ม.นเรศวร ประตู 5,ร้านข้าวสิงโต ม.นเรศวร ประตู 5 พิษณุโลก,loc,16 และ 20 มีนาคม 2563,16 มีนาคม 2563,20 มีนาคม 2563,12.00 - 13.00 น.,,,16.7507799,100.196714
50,51,พิษณุโลก,ร้านส้มตำแสบปาก,ร้านส้มตำแสบปาก,ร้านส้มตำแสบปาก พิษณุโลก,loc,17 มีนาคม 2563,17 มีนาคม 2563,17 มีนาคม 2563,17.00 - 18.00 น.,,,16.8298733,100.2477641
51,52,ราชบุรี,ผู้ที่มีประวัติสัมผัสเครื่องเล่นออกกำลังกายฝั่งตรงข้ามโรงเรียน เทศบาล 3  บริเวณถนนเฉลิมพระเกียรติ ร.9,โรงเรียนเทศบาล 3  ถนนเฉลิมพระเกียรติ ร.9,โรงเรียนเทศบาล 3  ถนนเฉลิมพระเกียรติ ร.9 ราชบุรี,loc,17-18 มีนาคม 2563,17 มีนาคม 2563,18 มีนาคม 2563,"ตั้งแต่
18.00 น. เป็นต้นไป","ใหท้  ่านมารายงานตัวกบั  ศูนย์บริการสาธารณสุข เทศบาลเมืองบ้านโป่ง ทางหมายเลขโทรศัพท์
032-222519, 086-6026768, 082-2653649 หรือ
สถานบริการสาธารณสุขใกล้บา้ น","สถานีวิทยุกระจาย เสียงแห่งประเทศไทย จงั หวดั ราชบุรี
22 มีนาคม 2563",13.8193975,99.87513949999999
52,53,ราชบุรี,บ้านเลขที  88/2 ม.6 ต.เขาขลุง อ. บ้านโป่ง,บ้านเลขที  88/2 ม.6 ต.เขาขลุง อ. บ้านโป่ง,บ้านเลขที  88/2 ม.6 ต.เขาขลุง อ. บ้านโป่ง ราชบุรี,loc,10 มีนาคม 2563,10 มีนาคม 2563,10 มีนาคม 2563,เช้า,ให้ผู้ทเ ี คยเดินทางไปยังสถานทใ ี นช่วงวันและเวลาท ี ระบุ ไปรายงานตัวกับเจา้ หนา้ ทส ี าธารณสุข ณ สถานพยาบาลใกล้บ้านภายในวันท ี 1 เมษายน 2563 เพอื  รับค าแนะน าในการสังเกตอาการตนเอง,"ศูนย์บัญชาการ เหตุการณ์ป้องกันและ แกไ้ ขปัญหา โรคติดเชื้อ ไวรัสโคโรนา 2019 (COVID-19) จังหวดั ราชบุรี
25 มีนาคม 2563
26 มีนาคม 2563",13.7788889,99.7447222
53,54,ราชบุรี,ร้านเสริมสวยคุณกนกอร ม.6 ต. เขาขลุง อ.บ้านโป่ง,ร้านเสริมสวยคุณกนกอร ม.6 ต. เขาขลุง อ.บ้านโป่ง,ร้านเสริมสวยคุณกนกอร ม.6 ต. เขาขลุง อ.บ้านโป่ง ราชบุรี,loc,10 มีนาคม 2563,10 มีนาคม 2563,10 มีนาคม 2563,09.00 - 12.00 น.,,,13.7788889,99.7447222
54,55,ราชบุรี,บ้านเลขที  88/2 ม.6 ต.เขาขลุง อ. บ้านโป่ง,บ้านเลขที  88/2 ม.6 ต.เขาขลุง อ. บ้านโป่ง,บ้านเลขที  88/2 ม.6 ต.เขาขลุง อ. บ้านโป่ง ราชบุรี,loc,12 มีนาคม 2563,12 มีนาคม 2563,12 มีนาคม 2563,9.00 น. 12.00 - 16.00 น.,,,13.7788889,99.7447222
55,56,ราชบุรี,รพ.สต.เขาขลุง,โรงพยาบาลส่งเสริมสุขภาพตำบล ตำบลเขาขลุง,โรงพยาบาลส่งเสริมสุขภาพตำบล ตำบลเขาขลุง ราชบุรี,loc,12 มีนาคม 2563,12 มีนาคม 2563,12 มีนาคม 2563,09.00 - 12.00 น.,,,13.8001948,99.7185331
56,57,ราชบุรี,บ้านเลขที  72/4 ม.8 ต.เขาชะงุ้ม อ. โพธาราม,บ้านเลขที  72/4 ม.8 ต.เขาชะงุ้ม อ. โพธาราม,บ้านเลขที  72/4 ม.8 ต.เขาชะงุ้ม อ. โพธาราม ราชบุรี,loc,12 มีนาคม 2563,12 มีนาคม 2563,12 มีนาคม 2563,ช่วงค  า,,,13.644666,99.85447309999999
57,58,ราชบุรี,บ้านเลขที  72/4 ม.8 ต.เขาชะงุ้ม อ. โพธาราม,บ้านเลขที  72/4 ม.8 ต.เขาชะงุ้ม อ. โพธาราม,บ้านเลขที  72/4 ม.8 ต.เขาชะงุ้ม อ. โพธาราม ราชบุรี,loc,13 มีนาคม 2563,13 มีนาคม 2563,13 มีนาคม 2563,ช่วงค  า,,,13.644666,99.85447309999999
58,59,ราชบุรี,บ้านเลขที  88/2 ม.6 ต.เขาขลุง อ. บ้านโป่ง,บ้านเลขที  88/2 ม.6 ต.เขาขลุง อ. บ้านโป่ง,บ้านเลขที  88/2 ม.6 ต.เขาขลุง อ. บ้านโป่ง ราชบุรี,loc,14 มีนาคม 2563,14 มีนาคม 2563,14 มีนาคม 2563,เช้า,,,13.7788889,99.7447222
59,60,ราชบุรี,สนามสอบกศน. ห้องสอบที 5  รร. เทศบาล 1 (วัดสัตตนารถปริวัตร์),สนามสอบกศน. ห้องสอบที 5  รร. เทศบาล 1 (วัดสัตตนารถปริวัตร์),สนามสอบกศน. ห้องสอบที 5  รร. เทศบาล 1 (วัดสัตตนารถปริวัตร์) ราชบุรี,loc,14 มีนาคม 2563,14 มีนาคม 2563,14 มีนาคม 2563,13.30 - 14.00 น.,,,13.5400214,99.8273037
60,61,ราชบุรี,บ้านเลขที 293 ม.2 ต.เจดีย์หัก อ. เมืองราชบุรี,บ้านเลขที 293 ม.2 ต.เจดีย์หัก อ. เมืองราชบุรี,บ้านเลขที 293 ม.2 ต.เจดีย์หัก อ. เมืองราชบุรี ราชบุรี,loc,14 มีนาคม 2563,14 มีนาคม 2563,14 มีนาคม 2563,บ่าย,,,13.541445,99.8097516
61,62,ราชบุรี,บ้านเลขที  72/4 ม.8 ต.เขาชะงุ้ม อ. โพธาราม,บ้านเลขที  72/4 ม.8 ต.เขาชะงุ้ม อ. โพธาราม,บ้านเลขที  72/4 ม.8 ต.เขาชะงุ้ม อ. โพธาราม ราชบุรี,loc,14 มีนาคม 2563,14 มีนาคม 2563,14 มีนาคม 2563,ช่วงค  า,,,13.644666,99.85447309999999
62,63,ราชบุรี,บ้านเลขที  293 ม.2 ต.เจดีย์หัก อ. เมืองราชบุรี,บ้านเลขที  293 ม.2 ต.เจดีย์หัก อ. เมืองราชบุรี,บ้านเลขที  293 ม.2 ต.เจดีย์หัก อ. เมืองราชบุรี ราชบุรี,loc,15 มีนาคม 2563,15 มีนาคม 2563,15 มีนาคม 2563,เช้า,ใหผ้ ู้ทเ ี คยเดินทางไปยังสถานทใี  นช่วงวนั  และเวลาที ระบุ ไปรายงานตัวกับเจา้ หนา้ ทสี  าธารณสุข ณ สถานพยาบาลใกล้บ้านภายในวนั  ที  1 เมษายน 2563 เพอื  รับค าแนะน าในการสังเกตอาการตนเอง,"ศูนย์บัญชาการ เหตุการณ์ป้องกันและ แก้ไขปัญหา โรคติดเชื้อ ไวรัสโคโรนา 2019 (COVID-19) จงั หวัด ราชบุรี
25 มีนาคม 2563
26 มีนาคม 2563",13.541445,99.8097516
63,64,ราชบุรี,สนามสอบกศน. ห้องสอบที่ 4  รร. เทศบาล 1 (วัดสัตตนารถปริวัตร),สนามสอบกศน. ห้องสอบที่ 4  รร. เทศบาล 1 (วัดสัตตนารถปริวัตร),สนามสอบกศน. ห้องสอบที่ 4  รร. เทศบาล 1 (วัดสัตตนารถปริวัตร) ราชบุรี,loc,15 มีนาคม 2563,15 มีนาคม 2563,15 มีนาคม 2563,15.10 - 15.50 น.,,,13.5400214,99.8273037
64,65,ราชบุรี,งานศพ บ้านเลขที 72/4 ม.8  บ้าน หนองมะค่า ต.เขาชะงุ้ม อ.โพธาราม,บ้านเลขที 72/4 ม.8  บ้าน หนองมะค่า ต.เขาชะงุ้ม อ.โพธาราม,บ้านเลขที 72/4 ม.8  บ้าน หนองมะค่า ต.เขาชะงุ้ม อ.โพธาราม ราชบุรี,loc,15 มีนาคม 2563,15 มีนาคม 2563,15 มีนาคม 2563,20.00 น.,,,15.5017627,100.8564355
65,66,ราชบุรี,เคลื่อนศพจากบ้านเลขที  72/4 ม.8 บ้านหนองมะค่า ต.เขาชะงุ้ม อ.โพธาราม ไปวัด หนองมะค่า (ไม่รอฌาปณกิจ),บ้านเลขที  72/4 ม.8 บ้านหนองมะค่า ต.เขาชะงุ้ม อ.โพธาราม,บ้านเลขที  72/4 ม.8 บ้านหนองมะค่า ต.เขาชะงุ้ม อ.โพธาราม ราชบุรี,loc,17 มีนาคม 2563,17 มีนาคม 2563,17 มีนาคม 2563,09.00 - 12.00 น.,,,15.5017627,100.8564355
66,67,ราชบุรี,บ้านเลขที่ 88/2 ม.6 ต.เขาขลุง อ. บ้านโป่ง,บ้านเลขที่ 88/2 ม.6 ต.เขาขลุง อ. บ้านโป่ง,บ้านเลขที่ 88/2 ม.6 ต.เขาขลุง อ. บ้านโป่ง ราชบุรี,loc,17 มีนาคม 2563,17 มีนาคม 2563,17 มีนาคม 2563,10.00 - 16.00 น.,,,13.7788889,99.7447222
67,68,ราชบุรี,ร้านป๋าแอ็ดคาร์แคร์ ใกล้สี แยกเขางู (นิสสัน) อ.เมืองราชบุรี,ร้านป๋าแอ็ดคาร์แคร์  อ.เมือง,ร้านป๋าแอ็ดคาร์แคร์  อ.เมือง ราชบุรี,loc,20 มีนาคม 2563,20 มีนาคม 2563,20 มีนาคม 2563,08.00 - 17.00 น.,,,13.5231847,99.8180383
68,69,ราชบุรี,ตลาดนัดเขาช่องพราน,ตลาดนัดเขาช่องพราน,ตลาดนัดเขาช่องพราน ราชบุรี,loc,20 มีนาคม 2563,20 มีนาคม 2563,20 มีนาคม 2563,17.30 - 18.00 น.,,,13.7175158,99.77013950000001
69,70,ราชบุรี,ผู้โดยสารในเที่ยวบิน TG 971 ซูริค - กรุงเทพ (สุวรรณภูมิ) ใกล้ที่นั่ง 21 G,ผู้โดยสารในเที่ยวบิน TG 971 ซูริค - กรุงเทพ (สุวรรณภูมิ) ใกล้ที่นั่ง 21 G,ราชบุรี,interPlane,19 มีนาคม 2563,19 มีนาคม 2563,19 มีนาคม 2563,05.30 น.,,,13.5282893,99.8134211
70,71,ราชบุรี,ร้านก๋วยเตี๋ยวสี่แยกไฟแดงหัวโป่ง,ร้านก๋วยเตี๋ยวสี่แยกไฟแดงหัวโป่ง,ร้านก๋วยเตี๋ยวสี่แยกไฟแดงหัวโป่ง ราชบุรี,loc,19 มีนาคม 2563,19 มีนาคม 2563,19 มีนาคม 2563,10.00 - 11.00 น.,,,13.8028123,99.90145969999999
71,72,ราชบุรี,ห้างสรรพสินค้าบริเวณสามแยก กระจับ,สามแยกกระจับ,สามแยกกระจับ ราชบุรี,loc,19 มีนาคม 2563,19 มีนาคม 2563,19 มีนาคม 2563,11.00 - 12.00 น.,ให้ผู้ทเ ี คยเดินทางไปยังสถานทใี  นช่วงวันและเวลาที ระบุ ไปรายงานตัวกบั  เจา้ หน้าทส ี าธารณสุข ณ สถานพยาบาลใกล้บา้ นภายในวนั  ที  1 เมษายน 2563 เพอ ื รับค าแนะน าในการสังเกตอาการตนเอง,"ศูนย์บัญชาการ
เหตุการณ์ป้องกนั  และ แก้ไขปัญหา โรคติดเช้ือ ไวรัสโคโรนา 2019 (COVID-19) จังหวดั
ราชบุรี",13.7881073,99.9219102
72,73,ราชบุรี,ร้านก๋วยเตี๋ยวตาพงษ์,ร้านก๋วยเตี๋ยวตาพงษ์,ร้านก๋วยเตี๋ยวตาพงษ์ ราชบุรี,loc,19 มีนาคม 2563,19 มีนาคม 2563,19 มีนาคม 2563,10.00 - 11.00 น.,,,13.811581,99.87504
73,74,ราชบุรี,ห้างโลตัส บ้านโป่ง,ห้างโลตัส บ้านโป่ง,ห้างโลตัส บ้านโป่ง ราชบุรี,loc,19 มีนาคม 2563,19 มีนาคม 2563,19 มีนาคม 2563,11.00 - 12.00 น.,,,13.7933338,99.9178383
74,75,ราชบุรี,ห้างโลตัส บ้านโป่ง,ห้างโลตัส บ้านโป่ง,ห้างโลตัส บ้านโป่ง ราชบุรี,loc,20 มีนาคม 2563,20 มีนาคม 2563,20 มีนาคม 2563,12.00 - 14.00 น.,,,13.7933338,99.9178383
75,76,ลพบุรี,งานบวชบ้านห้วยนา อ.ชัยบาดาล,บ้านห้วยนา อ.ชัยบาดาล,บ้านห้วยนา อ.ชัยบาดาล ลพบุรี,loc,7 มีนาคม 2563,7 มีนาคม 2563,7 มีนาคม 2563,-,หากมีอาการไข้ ร่วมกับ เจ็บคอ มีน้ ามูก หายใจ เหนื อย หายใจล าบาก อย่างใดอย่างหนึ ง ให้ไปพบ แพทย์ ณ โรงพยาบาลใกล้บ้านของท่าน พร้อมกับ แจง้ ข้อมูลเก ียวกบั  สถานทเี  สี ยงดังกล่าว,"ส านักงานสาธารณสุข จงั หวัดเชียงราย
19 มีนาคม 2563",15.0554482,101.0146187
76,77,ลพบุรี,ร้านก๋วยเตี๋ยวและทำางานที่ศูนย์ฝึก ยุทธวิธีฯ อ.ชัยบาดาล,ศูนย์ฝึกยุทธวิธี อ.ชัยบาดาล,ศูนย์ฝึกยุทธวิธี อ.ชัยบาดาล ลพบุรี,loc,8-10 มีนาคม 2563,8 มีนาคม 2563,10 มีนาคม 2563,-,,,15.2529216,101.052284
77,78,ลพบุรี,ห้องตัดผมศูนย์ฝึกยุทธวิธีฯ อ.ชัย บาดาล,ศูนย์ฝึกยุทธวิธี อ.ชัยบาดาล,ศูนย์ฝึกยุทธวิธี อ.ชัยบาดาล ลพบุรี,loc,11 มีนาคม 2563,11 มีนาคม 2563,11 มีนาคม 2563,-,,,15.2529216,101.052284
78,79,ลพบุรี,บ้านพักตลาดลำานารายณ์ และหมอดู ต.ศิลาทิพย์,ตลาดลำนารายณ์ ,ตลาดลำนารายณ์  ลพบุรี,loc,14-15 มีนาคม 2563,14 มีนาคม 2563,15 มีนาคม 2563,-,,,15.2057815,101.1325729
79,80,นครสวรรค์,ผู้เดินทางสายการบิน การบินไทย เที่ยวบิน TG 462 เส้นทาง Melbourne - Bangkok,ผู้เดินทางสายการบิน การบินไทย เที่ยวบิน TG 462 เส้นทาง Melbourne - Bangkok,นครสวรรค์,interPlane,16 มีนาคม 2563,16 มีนาคม 2563,16 มีนาคม 2563,-,ผู้ทเ ี ดินทางมากบั  เทยี  วบินดังกล่าว ขอให้ติดต่อ เจา้ หน้าทสี  าธารณสุข ณ สถานบริการสาธารณสุข ใกล้บา้ นด่วน,ส านกั งานสาธารณสุข จงั หวัดนครสวรรค์ 28 มีนาคม 2563,15.6930072,100.1225595
80,81,นครปฐม,รถตู้โดยสาร ท่าทิพวลั  รถเบอร์ 10 กทม. - นครปฐม,รถตู้โดยสาร ท่าทิพวลั  รถเบอร์ 10 กทม. - นครปฐม,นครปฐม,van,17 มีนาคม 2563,17 มีนาคม 2563,17 มีนาคม 2563,09.30 น.,ผู้ทเี  ดินทางมากบั  รถโดยสาร และสถานที  ตามวนั  และ เวลาดังกล่าว ให้ติดต่อคลินิกโรคติดต่อทางเดิน หายใจ และแจง้ ข้อมูลกับเจา้ หนา้ ทส ี าธารณสุข ณ สถานพยาบาลใกล้บ้าน และสังเกตอาการจนครบ 14 วัน,"ศูนย์ปฏิบตั ิการโควิด 19 (COVID-19)
จังหวดั นครปฐม 27 มีนาคม 2563",13.8199206,100.0621676
81,82,นครปฐม,รถ ปอ. สาย 515 ทะเบียน 13-1698 กทม. ลงที่สถานีรถไฟ ศาลายา,รถ ปอ. สาย 515 ทะเบียน 13-1698 กทม. ลงที่สถานีรถไฟ ศาลายา,นครปฐม,localBus,18 มีนาคม 2563,18 มีนาคม 2563,18 มีนาคม 2563,"10.30 น.
14.30 น.",,,13.8199206,100.0621676
82,83,นครปฐม,รถไฟสายธนบุรี - น้าตกไทรโยก จากสถานีศาลายา - งิ้วราย,รถไฟสายธนบุรี - น้าตกไทรโยก จากสถานีศาลายา - งิ้วราย,นครปฐม,train,18 มีนาคม 2563,18 มีนาคม 2563,18 มีนาคม 2563,13.00 น.,ผู้ทเ ี ดินทางมากับรถโดยสาร และสถานท ี ตามวนั  และ เวลาดังกล่าว ให้ติดต่อคลินิกโรคติดต่อทางเดิน หายใจ และแจ้งข้อมูลกับเจ้าหน้าทส ี าธารณสุข ณ สถานพยาบาลใกล้บา้ น และสังเกตอาการจนครบ 14 วัน,"ศูนย์ปฏิบตั ิการโควิด 19 (COVID-19)
จงั หวดั นครปฐม 27 มีนาคม 2563",13.8199206,100.0621676
83,84,นครปฐม,"เทสโก้ โลตัส สาขานครชัยศรี
(รถส่วนบุคคล) รอภรรยาบริเวณหน้า ศูนย์อาหาร",เทสโก้โลตัส สาขานครชัยศรี ,เทสโก้โลตัส สาขานครชัยศรี  นครปฐม,loc,20 มีนาคม 2563,20 มีนาคม 2563,20 มีนาคม 2563,12.00 น.,,,13.7928887,100.1716823
84,85,มุกดาหาร,ร้านนวดแผนโบราณ สมาคมคนตา บอด หลังโรงเรียนมุกดาหาร,โรงเรียนมุกดาหาร,โรงเรียนมุกดาหาร มุกดาหาร,loc,16 มีนาคม 2563,16 มีนาคม 2563,16 มีนาคม 2563,-,ขอให้ผู้ทเ ี ดินทางไปยงั สถานทดี  ังกล่าว ในวนั  และ เวลาทร ี ะบุ ได้อยู่สังเกตอาการทบี   ้านเป็นเวลา 14 วนั หากพบอาการผิดปกติ เช่น ไข้ ไอ จาม เจ็บคอ หรือ ปวดเม ือยตามกล้ามเนอ้ื ให้รีบพบแพทย์เพอื  ท าการ ตรวจวินิจฉยั,"ศูนย์บัญชาการ เหตุการณ์ COVID-19 จ.มุกดาหาร
โทร.042-612942
28 มีนาคม 2563",16.5369301,104.716382
85,86,มุกดาหาร,ร้านข้าวมันไก่ ตาตแคน ซอย 12,ร้านข้าวมันไก่ตาตแคน ซอย 12,ร้านข้าวมันไก่ตาตแคน ซอย 12 มุกดาหาร,loc,18 มีนาคม 2563,18 มีนาคม 2563,18 มีนาคม 2563,-,,,16.5552613,104.7003786
86,87,มุกดาหาร,โชว์รูมรถ MG มุกดาหาร,โชว์รูมรถ MG ,โชว์รูมรถ MG  มุกดาหาร,loc,18 มีนาคม 2563,18 มีนาคม 2563,18 มีนาคม 2563,,,,16.5490484,104.7183437
87,88,มุกดาหาร,ร้านอาหารแพเจ้าสำราญ,ร้านอาหารแพเจ้าสำราญ,ร้านอาหารแพเจ้าสำราญ มุกดาหาร,loc,19 มีนาคม 2563,19 มีนาคม 2563,19 มีนาคม 2563,18.00-21.00 น.,,,16.5304352,104.7167249
88,89,มุกดาหาร,ร้านข้าวต้มบาทเดียว สาขา 1 ตรง ข้าม บขส. มุกดาหาร,ร้านข้าวต้มบาทเดียว สาขา 1 ,ร้านข้าวต้มบาทเดียว สาขา 1  มุกดาหาร,loc,19 มีนาคม 2563,19 มีนาคม 2563,19 มีนาคม 2563,21.00-22.00 น.,,,16.5400718,104.7120918
89,90,มุกดาหาร,ร้านพงษ์ลาบแซ่บ ใกล้วัดคาสายทอง อ.เมืองมุกดาหาร,ร้านพงษ์ลาบแซ่บ อ.เมือง,ร้านพงษ์ลาบแซ่บ อ.เมือง มุกดาหาร,loc,20 มีนาคม 2563,20 มีนาคม 2563,20 มีนาคม 2563,11.00-13.00 น.,,,16.5367689,104.706486
90,91,มุกดาหาร,ตลาดไนท์บ๊อคซ์ ทางไปหอแก้ว มุกดาหาร,ตลาดไนท์บ๊อคซ์ ,ตลาดไนท์บ๊อคซ์  มุกดาหาร,loc,20 มีนาคม 2563,20 มีนาคม 2563,20 มีนาคม 2563,20.00-22.00 น.,,,16.5343645,104.7316823
91,92,มุกดาหาร,ผับ NOX หน้า โรงแรมริเวอร์ซิต้ี,ผับ NOX ,ผับ NOX  มุกดาหาร,loc,20 มีนาคม 2563,20 มีนาคม 2563,20 มีนาคม 2563,22.00-24.00 น.,,,16.5695723,104.5231213
92,93,มุกดาหาร,ร้านขนส่งพัสดุ J&T Express ทาง ไปหอแก้ว มุกดาหาร,ร้านขนส่งพัสดุ J&T Express,ร้านขนส่งพัสดุ J&T Express มุกดาหาร,loc,22 มีนาคม 2563,22 มีนาคม 2563,22 มีนาคม 2563,"10.00-11.00 น.
16.00-17.00 น.",,,16.529742,104.7345469
93,94,เพชรบูรณ์,บริเวณร้านชายสี  (ข้างธนาคารไทยพาณิชย์) บ้านกลาง,ธนาคารไทยพาณิชย์ บ้านกลาง,ธนาคารไทยพาณิชย์ บ้านกลาง เพชรบูรณ์,loc,18 มีนาคม 2563,18 มีนาคม 2563,18 มีนาคม 2563,22.00 - 22.30 น.,"ขอให้ผู้ทเ ี ดินทางไปสถานที  ตามวันและเวลาดังกล่าว เฝ้าระวงั และสังเกตอาการตนเองเป็นเวลา 14 วนั หากมีอาการไข้ ไอ เจ็บคอ มีน ้ามูก หรือหายใจ
เหนื อยหอบ ขอให้แจ้งรพ.ศรีเทพ ทางโทรศัพท์ หมายเลข 063-2546010 โดยด่วน","ส านกั งานสาธารณสุข อ าเภอศรีเทพ จังหวัด เพชรบูรณ์
25 มีนาคม 2563
26 มีนาคม 2563",16.4188272,101.1554921
94,95,เพชรบูรณ์,ร้านน้าทอง ม. บ้านวังขาม,ร้านน้าทอง ม. บ้านวังขาม,ร้านน้าทอง ม. บ้านวังขาม เพชรบูรณ์,loc,19 มีนาคม 2563,19 มีนาคม 2563,19 มีนาคม 2563,07.00 - 07.20 น.,,,15.4005398,101.0372335
95,96,เพชรบูรณ์,ร้านเสริมสวย ม.7 วังกำแพง,ร้านเสริมสวย ม.7 วังกำแพง,ร้านเสริมสวย ม.7 วังกำแพง เพชรบูรณ์,loc,19 มีนาคม 2563,19 มีนาคม 2563,19 มีนาคม 2563,09.00 - 09.30 น.,,,16.301669,101.1192804
96,97,เพชรบูรณ์,บริเวณตลาดนัด บขส.บ้านกลาง,บริเวณตลาดนัด บขส.บ้านกลาง,บริเวณตลาดนัด บขส.บ้านกลาง เพชรบูรณ์,loc,19 มีนาคม 2563,19 มีนาคม 2563,19 มีนาคม 2563,16.30 - 17.30 น.,,,16.633209,101.3771496
97,98,เพชรบูรณ์,ร้านเครื่องใช้ไฟฟ้า หน้าทางเข้า บขส.บ้านกลาง,บขส.บ้านกลาง,บขส.บ้านกลาง เพชรบูรณ์,loc,19 มีนาคม 2563,19 มีนาคม 2563,19 มีนาคม 2563,17.30 - 17.50 น.,,,16.633209,101.3771496
98,99,เพชรบูรณ์,ตลาดนัดวัดสว่างสามัคคี,ตลาดนัดวัดสว่างสามัคคี,ตลาดนัดวัดสว่างสามัคคี เพชรบูรณ์,loc,20 มีนาคม 2563,20 มีนาคม 2563,20 มีนาคม 2563,09.00 - 10.30 น.,,,15.4338373,101.0704954
99,100,เพชรบูรณ์,โรงเรียนบ้านวังขาม,โรงเรียนบ้านวังขาม,โรงเรียนบ้านวังขาม เพชรบูรณ์,loc,20 มีนาคม 2563,20 มีนาคม 2563,20 มีนาคม 2563,11.00 - 11.15 น.,,,15.4208094,101.0356249
100,101,เพชรบูรณ์,โรงพยาบาลศรีเทพ,โรงพยาบาลศรีเทพ,โรงพยาบาลศรีเทพ เพชรบูรณ์,loc,20 มีนาคม 2563,20 มีนาคม 2563,20 มีนาคม 2563,18.20 - 18.50 น.,,,15.4493864,101.0550614
101,102,เพชรบูรณ์,สำานักทะเบียนอำเภอ ที่ว่าการอำเภอศรีเทพ,ที่ว่าการอำเภอศรีเทพ,ที่ว่าการอำเภอศรีเทพ เพชรบูรณ์,loc,16 มีนาคม 2563,16 มีนาคม 2563,16 มีนาคม 2563,10.30 - 11.00 น.,,,15.4537633,101.0669182
102,103,เพชรบูรณ์,สำนักงานสรรพากรพื้นที่สาขาศรีเทพ,สำนักงานสรรพากรพื้นที่สาขาศรีเทพ,สำนักงานสรรพากรพื้นที่สาขาศรีเทพ เพชรบูรณ์,loc,16 มีนาคม 2563,16 มีนาคม 2563,16 มีนาคม 2563,"11.00 - 12.00 น.
13.00 - 14.30 น.",,,15.45306,101.067048
103,104,เพชรบูรณ์,ช.เจริญกลการ 2 (ตลาดบ้านกลาง),ช.เจริญกลการ 2 (ตลาดบ้านกลาง),ช.เจริญกลการ 2 (ตลาดบ้านกลาง) เพชรบูรณ์,loc,16 มีนาคม 2563,16 มีนาคม 2563,16 มีนาคม 2563,"12.00 - 12.15 น.
16.30 - 17.00 น.",,,16.0784417,101.0547077
104,105,เพชรบูรณ์,ร้านแอมไพร์ (ตลาดบ้านกลาง),ร้านแอมไพร์ (ตลาดบ้านกลาง),ร้านแอมไพร์ (ตลาดบ้านกลาง) เพชรบูรณ์,loc,16 มีนาคม 2563,16 มีนาคม 2563,16 มีนาคม 2563,12.15 - 13.00 น.,,,16.633209,101.3771496
105,106,ตาก,"ผู้เดินทางสายการบิน Qatar Airway
เที่ยวบิน QA 704 เส้นทาง New York - Doha","ผู้เดินทางสายการบิน Qatar Airway
เที่ยวบิน QA 704 เส้นทาง New York - Doha",ตาก,interPlane,23 มีนาคม 2563,23 มีนาคม 2563,23 มีนาคม 2563,-,ผู้ทเี  ดินทางมากับเทย ี วบินดังกล่าว ขอใหต้ ิดต่อ เจ้าหนา้ ทสี  าธารณสุข ณ สถานบริการสาธารณสุข ใกล้บา้ นด่วน,"ส านักงานสาธารณสุข จงั หวัดตาก
28 มีนาคม 2563",16.8839901,99.1258498
106,107,ตาก,"ผู้เดินทางสายการบิน Qatar Airway
เที่ียวบิน QA 840 เส้นทาง Doha - Phuket","ผู้เดินทางสายการบิน Qatar Airway
เที่ียวบิน QA 840 เส้นทาง Doha - Phuket",ตาก,interPlane,23 มีนาคม 2563,23 มีนาคม 2563,23 มีนาคม 2563,-,,,16.8839901,99.1258498
107,108,ตาก,ผู้เดินทางสายการบิน Air Asia เที่ยวบิน FD3167 เส้นทาง Phuket- Chaing mai,ผู้เดินทางสายการบิน Air Asia เที่ยวบิน FD3167 เส้นทาง Phuket- Chaing mai,ตาก,domesticPlane,24 มีนาคม 2563,24 มีนาคม 2563,24 มีนาคม 2563,-,,,16.8839901,99.1258498
108,110,ชลบุรี,ห้างสรรพสินค้า เทสโก้โลตัส ชลบุรี ช้างเซนทรัลชลบุรี,เทสโก้โลตัส ชลบุรี ,เทสโก้โลตัส ชลบุรี  ชลบุรี,loc,17 มีนาคม 2563,17 มีนาคม 2563,17 มีนาคม 2563,-,ขอใหผ้ ู้ทเี  ดินทางไปยังสถานทดี  ังกล่าว ท าการกักตัว เพอ ื สังเกตอาการตนเองเป็นเวลา 14 วัน หากมี อาการไข้ ไอ เจ็บคอ มีอาการทางระบบทางเดิน หายใจ ให้รีบเขา้ รับการตรวจรักาทโี  รงพยาบาลของ รัฐในพนื้  ทที   ันที สอบถามทห ี  มายเลข 0-3811-9777,คณะกรรมการ โรคติดต่อจังหวัดชลบุรี 27 มีนาคม 2563,13.3397774,100.9725764
109,111,ชลบุรี,ห้างสรรพสินค้า แหลมทองบางแสน,แหลมทองบางแสน,แหลมทองบางแสน ชลบุรี,loc,17 มีนาคม 2563,17 มีนาคม 2563,17 มีนาคม 2563,,,,13.2865749,100.9267703
110,112,ชลบุรี,สำนักงานสาขาไทยประกันชีวิต สาขาบ้านสวน ต.บ้านสวน,สำนักงานสาขาไทยประกันชีวิต สาขาบ้านสวน ต.บ้านสวน,สำนักงานสาขาไทยประกันชีวิต สาขาบ้านสวน ต.บ้านสวน ชลบุรี,loc,17 มีนาคม 2563,17 มีนาคม 2563,17 มีนาคม 2563,,,,13.357053,100.986241
111,113,ชลบุรี,สะพานราชเทวี แหลมแท่น,สะพานราชเทวี แหลมแท่น,สะพานราชเทวี แหลมแท่น ชลบุรี,loc,17 มีนาคม 2563,17 มีนาคม 2563,17 มีนาคม 2563,,,,13.3041844,100.9019458
112,114,ชลบุรี,ร้านจำหน่ายอาหาร Hermes Bangsaen,Hermes Bangsaen,Hermes Bangsaen ชลบุรี,loc,17 มีนาคม 2563,17 มีนาคม 2563,17 มีนาคม 2563,,,,13.2846363,100.9181316
113,115,ชลบุรี,โต๊ะสนุกเกอร์ บริเวณหน้า โรงพยาบาลเอกชล 2,โรงพยาบาลเอกชล 2,โรงพยาบาลเอกชล 2 ชลบุรี,loc,18 มีนาคม 2563,18 มีนาคม 2563,18 มีนาคม 2563,,,,13.3177155,100.9487839
114,116,ชลบุรี,ร้านจำหน่ายอาหาร หน้ามนหนมหวาน บางแสน,หน้ามนหนมหวาน บางแสน,หน้ามนหนมหวาน บางแสน ชลบุรี,loc,20 มีนาคม 2563,20 มีนาคม 2563,20 มีนาคม 2563,-,ขอให้ผู้ทเ ี ดินทางไปยงั สถานทด ี ังกล่าว ท าการกักตัว เพอื  สังเกตอาการตนเองเป็นเวลา 14 วัน หากมี อาการไข้ ไอ เจ็บคอ มีอาการทางระบบทางเดิน หายใจ ให้รีบเข้ารับการตรวจรักาทโ ี รงพยาบาลของ รัฐในพนื้  ทท ี  นั  ที สอบถามทห ี  มายเลข 0-3811-9777,คณะกรรมการ โรคติดต่อจังหวัดชลบุรี 27 มีนาคม 2563,13.2787914,100.9327336
115,117,ชลบุรี,สถานประกอบการ Seafood Club บางแสน,Seafood Club บางแสน,Seafood Club บางแสน ชลบุรี,loc,20 มีนาคม 2563,20 มีนาคม 2563,20 มีนาคม 2563,,,,13.2753502,100.9230501
116,118,ชลบุรี,อู่ซ่อมรถยนต์ อู่รถป๊อบช่างจ๊ะ หัวลำโพง,อู่รถป๊อบช่างจ๊ะ หัวลำโพง,อู่รถป๊อบช่างจ๊ะ หัวลำโพง ชลบุรี,loc,20 มีนาคม 2563,20 มีนาคม 2563,20 มีนาคม 2563,,,,13.3611431,100.9846717
117,119,ชลบุรี,ร้านจำหน่ายอาหาร เจ้ยุ้ย,เจ้ยุ้ย,เจ้ยุ้ย ชลบุรี,loc,20 มีนาคม 2563,20 มีนาคม 2563,20 มีนาคม 2563,,,,13.1209228,100.9034878
118,120,ชลบุรี,ร้านจำหน่ายอาหาร ครัวป้าไหม สาขานอก,ครัวป้าไหม สาขานอก,ครัวป้าไหม สาขานอก ชลบุรี,loc,22 มีนาคม 2563,22 มีนาคม 2563,22 มีนาคม 2563,,,,13.3225232,100.9280112
119,121,ชลบุรี,สถานประกอบการ Warehouse Pub & Restaurant (แวร์เฮ้าร์) บางแสน,Warehouse Pub & Restaurant (แวร์เฮ้าร์) บางแสน,Warehouse Pub & Restaurant (แวร์เฮ้าร์) บางแสน ชลบุรี,loc,23 มีนาคม 2563,23 มีนาคม 2563,23 มีนาคม 2563,,,,13.2853253,100.9210507
120,122,ชลบุรี,สถานประกอบการ คาเฟ่ เดอ บีช พัทยา,คาเฟ่ เดอ บีช พัทยา,คาเฟ่ เดอ บีช พัทยา ชลบุรี,loc,15 มีนาคม 2563,15 มีนาคม 2563,15 มีนาคม 2563,,,,13.000325,100.925818
121,123,ชลบุรี,ร้านจำหน่ายอาหาร คนล่าฝัน พัทยาเหนือ,คนล่าฝัน พัทยาเหนือ,คนล่าฝัน พัทยาเหนือ ชลบุรี,loc,15 มีนาคม 2563,15 มีนาคม 2563,15 มีนาคม 2563,,,,12.9441841,100.898158
122,124,ชลบุรี,สถานประกอบการ บาร์เบียร์ ซอย 6 พัทยา,บาร์เบียร์ ซอย 6 พัทยา,บาร์เบียร์ ซอย 6 พัทยา ชลบุรี,loc,"23 กุมภาพนั  ธ์ -
26 มีนาคม 2563",23 กุมภาพันธ์ 2563,26 มีนาคม 2563,,,,12.934131,100.8966847
123,125,ชลบุรี,สถานประกอบการอินฟีนิตี้ 20  ซอย 6  ต.ศรีราชา,อินฟีนิตี้ 20  ซอย 6  ต.ศรีราชา,อินฟีนิตี้ 20  ซอย 6  ต.ศรีราชา ชลบุรี,loc,1-15 มีนาคม 2563,1 มีนาคม 2563,15 มีนาคม 2563,,,,13.169835,100.9355607
124,126,ชลบุรี,ธนาคารกสิกรไทย สาขาบ่อวิน ต. บ่อวิน,ธนาคารกสิกรไทย สาขาบ่อวิน ต. บ่อวิน,ธนาคารกสิกรไทย สาขาบ่อวิน ต. บ่อวิน ชลบุรี,loc,20-22 มีนาคม 2563,20 มีนาคม 2563,22 มีนาคม 2563,-,ขอให้ผู้ทเี  ดินทางไปยังสถานทด ี ังกล่าว ท าการกกั ตัว เพอ ื สังเกตอาการตนเองเป็นเวลา 14 วนั  หากมี อาการไข้ ไอ เจ็บคอ มีอาการทางระบบทางเดิน หายใจ ใหร้ ีบเข้ารับการตรวจรักาทโ ี รงพยาบาลของ รัฐในพนื้  ทที   ันที สอบถามทหี   มายเลข 0-3811-9777,คณะกรรมการ โรคติดต่อจงั หวดั ชลบุรี 27 มีนาคม 2563,13.062695,101.103267
125,127,ชลบุรี,ร้านจำหน่ายอาหาร A la Champagne,A la Champagne,A la Champagne ชลบุรี,loc,22 มีนาคม 2563,22 มีนาคม 2563,22 มีนาคม 2563,,,,12.8596543,100.9081018
126,128,ชลบุรี,ร้านจำหน่ายอาหาร ครัวปรีชา,ครัวปรีชา,ครัวปรีชา ชลบุรี,loc,22 มีนาคม 2563,22 มีนาคม 2563,22 มีนาคม 2563,,,,12.8428077,100.9170008
127,129,เชียงใหม่,พริตตี้ คาราโอเกะ,พริตตี้ คาราโอเกะ,พริตตี้ คาราโอเกะ เชียงใหม่,loc,8-18 มีนาคม 2563,8 มีนาคม 2563,18 มีนาคม 2563,-,สังเกตอาการตนเองอย่างใกล้ชิด หากท่านมีอาการ ไข้ ร่วมกับ ไอ เจ็บคอ มีน ้ามูก หายใจหอบเหนื อย หลังจากไปในสถานทที   ม ี ีการประกาศภายใน 14 วัน กรุณาไปพบแพทย์และแจ้งประวตั ิทสี  ถานพยาบาล ใกล้บ้าน เพอ ื รับการตรวจหาเช้ือโควิด-19 ต่อไป,"คณะกรรมการ โรคติดต่อจงั หวัด เชียงใหม่
29 มีนาคม 2563",18.8229278,98.98035259999999
128,130,เชียงใหม่,ผับ Take it,Take it,Take it เชียงใหม่,loc,8-18 มีนาคม 2563,8 มีนาคม 2563,18 มีนาคม 2563,-,,,18.7949721,98.9746516
129,131,เชียงใหม่,Dance Zone ที่ห้างเซนทรัลกาดสวนแก้ว คลาสเต้นครูอ้น,ห้างเซนทรัลกาดสวนแก้ว,ห้างเซนทรัลกาดสวนแก้ว เชียงใหม่,loc,13 มีนาคม 2563,13 มีนาคม 2563,13 มีนาคม 2563,18.00-20.00,,,18.796693,98.97604059999999
130,132,เชียงใหม่,ผับ Sound up,ผับ Sound up,ผับ Sound up เชียงใหม่,loc,13-18 มีนาคม 2563,13 มีนาคม 2563,18 มีนาคม 2563,-,,,18.7831237,98.9920899
131,133,เชียงใหม่,ผับ WB เชียงใหม่แลนด์,ผับ WB เชียงใหม่แลนด์,ผับ WB เชียงใหม่แลนด์ เชียงใหม่,loc,13-18 มีนาคม 2563,13 มีนาคม 2563,18 มีนาคม 2563,-,,,18.768862,98.998678
